{"type": "FeatureCollection", "features": [{"type": "Feature", "geometry": {"type": "Point", "coordinates": [-117.691, 46.706]}, "properties": {"n": 1, "taxa": ["Mammuthus columbi"], "sources": ["PBDB"]}}, {"type": "Feature", "geometry": {"type": "Point", "coordinates": [-120.7731, 46.8719]}, "properties": {"n": 2, "taxa": ["Bison antiquus", "Mammuthus"], "sources": ["PBDB"]}}, {"type": "Feature", "geometry": {"type": "Point", "coordinates": [-118.5, 47.0]}, "properties": {"n": 11, "taxa": ["Camelops", "Cervus brevitrabalis", "Equus", "Hemiauchenia", "Lynx canadensis", "Mammut americanum", "Odocoileus hemionus", "Panthera onca"], "sources": ["PBDB"]}}, {"type": "Feature", "geometry": {"type": "Point", "coordinates": [-117.523, 47.202]}, "properties": {"n": 12, "taxa": ["Camelops", "Camelops kansanus", "Equus", "Lynx canadensis", "Mammut", "Mammuthus columbi", "Mylodon", "Odocoileus"], "sources": ["PBDB"]}}, {"type": "Feature", "geometry": {"type": "Point", "coordinates": [-117.5667, 47.4833]}, "properties": {"n": 1, "taxa": ["Mammuthus primigenius"], "sources": ["PBDB"]}}, {"type": "Feature", "geometry": {"type": "Point", "coordinates": [-120.5247, 47.5654]}, "properties": {"n": 1, "taxa": ["Paramylodon"], "sources": ["iDigBio"]}}, {"type": "Feature", "geometry": {"type": "Point", "coordinates": [-119.2631, 47.6072]}, "properties": {"n": 1, "taxa": ["Camelus"], "sources": ["PBDB"]}}, {"type": "Feature", "geometry": {"type": "Point", "coordinates": [-122.6, 47.6]}, "properties": {"n": 1, "taxa": ["Phenacomys intermedius"], "sources": ["PBDB"]}}, {"type": "Feature", "geometry": {"type": "Point", "coordinates": [-123.1167, 48.05]}, "properties": {"n": 3, "taxa": ["Bison", "Mammut americanum", "Rangifer"], "sources": ["PBDB"]}}, {"type": "Feature", "geometry": {"type": "Point", "coordinates": [-123.0895, 48.0736]}, "properties": {"n": 34, "taxa": ["Bison", "Mammuthus", "Paramylodon"], "sources": ["iDigBio"]}}, {"type": "Feature", "geometry": {"type": "Point", "coordinates": [-122.7606, 48.1169]}, "properties": {"n": 1, "taxa": ["Mammuthus columbi"], "sources": ["PBDB"]}}, {"type": "Feature", "geometry": {"type": "Point", "coordinates": [-122.9272, 48.6078]}, "properties": {"n": 1, "taxa": ["Bison antiquus"], "sources": ["PBDB"]}}, {"type": "Feature", "geometry": {"type": "Point", "coordinates": [-123.0051, 48.6201]}, "properties": {"n": 1, "taxa": ["Bison antiquus"], "sources": ["PBDB"]}}, {"type": "Feature", "geometry": {"type": "Point", "coordinates": [-122.9446, 48.5979]}, "properties": {"n": 1, "taxa": ["Bison antiquus"], "sources": ["PBDB"]}}]}