{"type": "FeatureCollection", "features": [{"type": "Feature", "geometry": {"type": "Point", "coordinates": [-120.5, 43.33333]}, "properties": {"model": "east", "taxon": "Chroicocephalus philadelphia", "genus": "Chroicocephalus", "kind": "gull", "large": false, "state": "Oregon", "lith_score": 1.0, "zero_terrain": false}}, {"type": "Feature", "geometry": {"type": "Point", "coordinates": [-114.1, 39.0]}, "properties": {"model": "east", "taxon": "Allophaiomys pliocaenicus", "genus": "Allophaiomys", "kind": "vole", "large": false, "state": "Nevada", "lith_score": 0.4, "zero_terrain": false}}, {"type": "Feature", "geometry": {"type": "Point", "coordinates": [-112.9, 42.8]}, "properties": {"model": "east", "taxon": "Hemiauchenia macrocephala", "genus": "Hemiauchenia", "kind": "llama", "large": true, "state": "Idaho", "lith_score": 1.0, "zero_terrain": true}}, {"type": "Feature", "geometry": {"type": "Point", "coordinates": [-112.76667, 46.2]}, "properties": {"model": "east", "taxon": "Urocitellus richardsonii", "genus": "Urocitellus", "kind": "ground squirrel", "large": false, "state": "Montana", "lith_score": 1.0, "zero_terrain": true}}, {"type": "Feature", "geometry": {"type": "Point", "coordinates": [-119.5, 38.8]}, "properties": {"model": "east", "taxon": "Euceratherium collinum", "genus": "Euceratherium", "kind": "shrub ox", "large": true, "state": "Nevada", "lith_score": 0.4, "zero_terrain": false}}, {"type": "Feature", "geometry": {"type": "Point", "coordinates": [-114.01667, 38.95]}, "properties": {"model": "east", "taxon": "Urocitellus townsendii", "genus": "Urocitellus", "kind": "ground squirrel", "large": false, "state": "Nevada", "lith_score": 1.0, "zero_terrain": false}}, {"type": "Feature", "geometry": {"type": "Point", "coordinates": [-114.9, 36.21667]}, "properties": {"model": "east", "taxon": "Phrynosoma platyrhinos", "genus": "Phrynosoma", "kind": "horned lizard", "large": false, "state": "Nevada", "lith_score": 0.4, "zero_terrain": false}}, {"type": "Feature", "geometry": {"type": "Point", "coordinates": [-112.58334, 44.63333]}, "properties": {"model": "east", "taxon": "Antilocapra americana", "genus": "Antilocapra", "kind": "pronghorn", "large": true, "state": "Montana", "lith_score": 1.0, "zero_terrain": true}}, {"type": "Feature", "geometry": {"type": "Point", "coordinates": [-105.8, 46.4]}, "properties": {"model": "east", "taxon": "Megalonyx jeffersonii", "genus": "Megalonyx", "kind": "ground sloth", "large": true, "state": "Montana", "lith_score": 0.4, "zero_terrain": true}}, {"type": "Feature", "geometry": {"type": "Point", "coordinates": [-111.2, 43.3]}, "properties": {"model": "east", "taxon": "Bootherium bombifrons", "genus": "Bootherium", "kind": "musk ox", "large": true, "state": "Idaho", "lith_score": 0.4, "zero_terrain": true}}, {"type": "Feature", "geometry": {"type": "Point", "coordinates": [-112.85, 42.78333]}, "properties": {"model": "east", "taxon": "Bootherium bombifrons", "genus": "Bootherium", "kind": "musk ox", "large": true, "state": "Idaho", "lith_score": 0.4, "zero_terrain": true}}, {"type": "Feature", "geometry": {"type": "Point", "coordinates": [-111.0, 47.2]}, "properties": {"model": "east", "taxon": "Mammuthus primigenius", "genus": "Mammuthus", "kind": "mammoth", "large": true, "state": "Montana", "lith_score": 0.4, "zero_terrain": true}}, {"type": "Feature", "geometry": {"type": "Point", "coordinates": [-117.56667, 47.48333]}, "properties": {"model": "east", "taxon": "Mammuthus primigenius", "genus": "Mammuthus", "kind": "mammoth", "large": true, "state": "Washington", "lith_score": 0.4, "zero_terrain": false}}, {"type": "Feature", "geometry": {"type": "Point", "coordinates": [-112.9825, 46.615]}, "properties": {"model": "east", "taxon": "Cynomys ludovicianus", "genus": "Cynomys", "kind": "prairie dog", "large": false, "state": "Montana", "lith_score": 0.4, "zero_terrain": true}}, {"type": "Feature", "geometry": {"type": "Point", "coordinates": [-113.16666, 46.66667]}, "properties": {"model": "east", "taxon": "Sylvilagus nuttallii", "genus": "Sylvilagus", "kind": "cottontail", "large": false, "state": "Montana", "lith_score": 1.0, "zero_terrain": true}}, {"type": "Feature", "geometry": {"type": "Point", "coordinates": [-113.05, 46.61667]}, "properties": {"model": "east", "taxon": "Cynomys ludovicianus", "genus": "Cynomys", "kind": "prairie dog", "large": false, "state": "Montana", "lith_score": 1.0, "zero_terrain": true}}, {"type": "Feature", "geometry": {"type": "Point", "coordinates": [-118.5, 47.0]}, "properties": {"model": "east", "taxon": "Cervus brevitrabalis", "genus": "Cervus", "kind": "elk", "large": true, "state": "Washington", "lith_score": 1.0, "zero_terrain": false}}, {"type": "Feature", "geometry": {"type": "Point", "coordinates": [-113.04333, 46.59555]}, "properties": {"model": "east", "taxon": "Cynomys ludovicianus", "genus": "Cynomys", "kind": "prairie dog", "large": false, "state": "Montana", "lith_score": 1.0, "zero_terrain": true}}, {"type": "Feature", "geometry": {"type": "Point", "coordinates": [-117.5, 43.6]}, "properties": {"model": "east", "taxon": "Vulpes stenognathus", "genus": "Vulpes", "kind": "fox", "large": false, "state": "Oregon", "lith_score": 0.4, "zero_terrain": false}}, {"type": "Feature", "geometry": {"type": "Point", "coordinates": [-117.523, 47.202]}, "properties": {"model": "east", "taxon": "Odocoileus hemionus", "genus": "Odocoileus", "kind": "deer", "large": true, "state": "Washington", "lith_score": 0.4, "zero_terrain": false}}, {"type": "Feature", "geometry": {"type": "Point", "coordinates": [-119.2, 39.0]}, "properties": {"model": "east", "taxon": "Oreamnos americanus", "genus": "Oreamnos", "kind": "mountain goat", "large": true, "state": "Nevada", "lith_score": 0.4, "zero_terrain": false}}, {"type": "Feature", "geometry": {"type": "Point", "coordinates": [-112.71667, 46.28333]}, "properties": {"model": "east", "taxon": "Castor californicus", "genus": "Castor", "kind": "beaver", "large": false, "state": "Montana", "lith_score": 0.4, "zero_terrain": true}}, {"type": "Feature", "geometry": {"type": "Point", "coordinates": [-114.56889, 36.65445]}, "properties": {"model": "east", "taxon": "Chelydra serpentina", "genus": "Chelydra", "kind": "snapping turtle", "large": false, "state": "Nevada", "lith_score": 0.4, "zero_terrain": false}}, {"type": "Feature", "geometry": {"type": "Point", "coordinates": [-118.0, 43.0]}, "properties": {"model": "east", "taxon": "Paramylodon harlani", "genus": "Paramylodon", "kind": "ground sloth", "large": true, "state": "Idaho", "lith_score": 0.15, "zero_terrain": false}}, {"type": "Feature", "geometry": {"type": "Point", "coordinates": [-110.0, 48.8]}, "properties": {"model": "east", "taxon": "Camelops minidokae", "genus": "Camelops", "kind": "camel", "large": true, "state": "Montana", "lith_score": 0.4, "zero_terrain": true}}, {"type": "Feature", "geometry": {"type": "Point", "coordinates": [-113.16, 46.61222]}, "properties": {"model": "east", "taxon": "Camelops hesternus", "genus": "Camelops", "kind": "camel", "large": true, "state": "Montana", "lith_score": 1.0, "zero_terrain": true}}, {"type": "Feature", "geometry": {"type": "Point", "coordinates": [-120.5514, 42.7613]}, "properties": {"model": "east", "taxon": "Siphateles bicolor", "genus": "Siphateles", "kind": "chub (fish)", "large": false, "state": "Oregon", "lith_score": 1.0, "zero_terrain": false}}, {"type": "Feature", "geometry": {"type": "Point", "coordinates": [-117.691, 46.706]}, "properties": {"model": "east", "taxon": "Mammuthus columbi", "genus": "Mammuthus", "kind": "mammoth", "large": true, "state": "Washington", "lith_score": 0.4, "zero_terrain": false}}, {"type": "Feature", "geometry": {"type": "Point", "coordinates": [-116.33695, 36.50139]}, "properties": {"model": "east", "taxon": "Mammuthus columbi", "genus": "Mammuthus", "kind": "mammoth", "large": true, "state": "Nevada", "lith_score": 0.4, "zero_terrain": false}}, {"type": "Feature", "geometry": {"type": "Point", "coordinates": [-112.96667, 46.6]}, "properties": {"model": "east", "taxon": "Rangifer tarandus", "genus": "Rangifer", "kind": "caribou", "large": true, "state": "Montana", "lith_score": 1.0, "zero_terrain": true}}, {"type": "Feature", "geometry": {"type": "Point", "coordinates": [-114.6, 39.36667]}, "properties": {"model": "east", "taxon": "Ursus americanus", "genus": "Ursus", "kind": "bear", "large": true, "state": "Nevada", "lith_score": 0.4, "zero_terrain": false}}, {"type": "Feature", "geometry": {"type": "Point", "coordinates": [-112.06, 43.04]}, "properties": {"model": "east", "taxon": "Mammut pacificus", "genus": "Mammut", "kind": "mastodon", "large": true, "state": "Idaho", "lith_score": 0.4, "zero_terrain": true}}, {"type": "Feature", "geometry": {"type": "Point", "coordinates": [-120.7731, 46.8719]}, "properties": {"model": "east", "taxon": "Bison antiquus", "genus": "Bison", "kind": "bison", "large": true, "state": "Washington", "lith_score": 0.4, "zero_terrain": false}}, {"type": "Feature", "geometry": {"type": "Point", "coordinates": [-112.1, 42.5]}, "properties": {"model": "east", "taxon": "Perognathinae", "genus": "Perognathinae", "kind": "pocket mouse", "large": false, "state": "Idaho", "lith_score": 1.0, "zero_terrain": true}}, {"type": "Feature", "geometry": {"type": "Point", "coordinates": [-110.66666, 46.0]}, "properties": {"model": "east", "taxon": "Homo sapiens", "genus": "Homo", "kind": "human", "large": false, "state": "Montana", "lith_score": 0.4, "zero_terrain": true}}, {"type": "Feature", "geometry": {"type": "Point", "coordinates": [-113.3, 46.7]}, "properties": {"model": "east", "taxon": "Bos bison", "genus": "Bos", "kind": "cattle (Bos)", "large": true, "state": "Montana", "lith_score": 0.4, "zero_terrain": true}}, {"type": "Feature", "geometry": {"type": "Point", "coordinates": [-113.13333, 46.61667]}, "properties": {"model": "east", "taxon": "Bos bison", "genus": "Bos", "kind": "cattle (Bos)", "large": true, "state": "Montana", "lith_score": 0.4, "zero_terrain": true}}, {"type": "Feature", "geometry": {"type": "Point", "coordinates": [-113.0, 46.58333]}, "properties": {"model": "east", "taxon": "Camelops", "genus": "Camelops", "kind": "camel", "large": true, "state": "Montana", "lith_score": 0.4, "zero_terrain": true}}, {"type": "Feature", "geometry": {"type": "Point", "coordinates": [-112.9, 46.58333]}, "properties": {"model": "east", "taxon": "Thomomys", "genus": "Thomomys", "kind": "pocket gopher", "large": false, "state": "Montana", "lith_score": 1.0, "zero_terrain": true}}, {"type": "Feature", "geometry": {"type": "Point", "coordinates": [-112.71667, 46.31667]}, "properties": {"model": "east", "taxon": "Equini", "genus": "Equini", "kind": "horse", "large": true, "state": "Montana", "lith_score": 0.4, "zero_terrain": true}}, {"type": "Feature", "geometry": {"type": "Point", "coordinates": [-123.34722, 48.60166]}, "properties": {"model": "west", "taxon": "Mammuthus columbi", "lith_score": 0.4}}, {"type": "Feature", "geometry": {"type": "Point", "coordinates": [-123.29472, 48.45861]}, "properties": {"model": "west", "taxon": "Mammuthus columbi", "lith_score": 0.4}}, {"type": "Feature", "geometry": {"type": "Point", "coordinates": [-123.29112, 48.47278]}, "properties": {"model": "west", "taxon": "Mammuthus columbi", "lith_score": 0.4}}, {"type": "Feature", "geometry": {"type": "Point", "coordinates": [-123.32611, 48.45667]}, "properties": {"model": "west", "taxon": "Mammuthus columbi", "lith_score": 0.4}}, {"type": "Feature", "geometry": {"type": "Point", "coordinates": [-122.76056, 48.11694]}, "properties": {"model": "west", "taxon": "Mammuthus columbi", "lith_score": 1.0}}, {"type": "Feature", "geometry": {"type": "Point", "coordinates": [-122.95801, 45.51902]}, "properties": {"model": "west", "taxon": "Mammuthus", "lith_score": 1.0}}, {"type": "Feature", "geometry": {"type": "Point", "coordinates": [-122.9, 44.53333]}, "properties": {"model": "west", "taxon": "Mammuthus", "lith_score": 1.0}}, {"type": "Feature", "geometry": {"type": "Point", "coordinates": [-122.87814, 44.95878]}, "properties": {"model": "west", "taxon": "Mammuthus columbi", "lith_score": 1.0}}, {"type": "Feature", "geometry": {"type": "Point", "coordinates": [-123.11667, 48.05]}, "properties": {"model": "west", "taxon": "Mammut americanum", "lith_score": 0.9}}, {"type": "Feature", "geometry": {"type": "Point", "coordinates": [-122.77675, 45.3739]}, "properties": {"model": "west", "taxon": "Mammut pacificus", "lith_score": 1.0}}, {"type": "Feature", "geometry": {"type": "Point", "coordinates": [-123.11958, 42.46881]}, "properties": {"model": "west", "taxon": "Mammut americanum", "lith_score": 0.4}}, {"type": "Feature", "geometry": {"type": "Point", "coordinates": [-123.50472, 48.44972]}, "properties": {"model": "west", "taxon": "Equus", "lith_score": 0.4}}, {"type": "Feature", "geometry": {"type": "Point", "coordinates": [-122.8425, 45.14834]}, "properties": {"model": "west", "taxon": "Equus", "lith_score": 1.0}}, {"type": "Feature", "geometry": {"type": "Point", "coordinates": [-122.77574, 45.43092]}, "properties": {"model": "west", "taxon": "Paramylodon harlani", "lith_score": 1.0}}, {"type": "Feature", "geometry": {"type": "Point", "coordinates": [-122.94463, 48.59788]}, "properties": {"model": "west", "taxon": "Bison antiquus", "lith_score": 0.2}}, {"type": "Feature", "geometry": {"type": "Point", "coordinates": [-123.0051, 48.6201]}, "properties": {"model": "west", "taxon": "Bison antiquus", "lith_score": 0.4}}, {"type": "Feature", "geometry": {"type": "Point", "coordinates": [-122.9272, 48.6078]}, "properties": {"model": "west", "taxon": "Bison antiquus", "lith_score": 0.2}}, {"type": "Feature", "geometry": {"type": "Point", "coordinates": [-122.84744, 45.15294]}, "properties": {"model": "west", "taxon": "Bison antiquus", "lith_score": 1.0}}, {"type": "Feature", "geometry": {"type": "Point", "coordinates": [-123.40727, 42.09826]}, "properties": {"model": "west", "taxon": "Cervus", "lith_score": 0.9}}, {"type": "Feature", "geometry": {"type": "Point", "coordinates": [-123.36667, 48.55]}, "properties": {"model": "west", "taxon": "Arctodus simus", "lith_score": 0.4}}, {"type": "Feature", "geometry": {"type": "Point", "coordinates": [-123.08948, 48.07357]}, "properties": {"model": "west", "taxon": "Mammuthus", "lith_score": 0.9}}, {"type": "Feature", "geometry": {"type": "Point", "coordinates": [-122.8, 44.9]}, "properties": {"model": "west", "taxon": "Mammuthus", "lith_score": 0.15}}, {"type": "Feature", "geometry": {"type": "Point", "coordinates": [-123.1, 42.4]}, "properties": {"model": "west", "taxon": "Mammuthus", "lith_score": 0.9}}, {"type": "Feature", "geometry": {"type": "Point", "coordinates": [-123.0, 45.2]}, "properties": {"model": "west", "taxon": "Mammuthus", "lith_score": 1.0}}, {"type": "Feature", "geometry": {"type": "Point", "coordinates": [-122.8, 45.1]}, "properties": {"model": "west", "taxon": "Mammut", "lith_score": 1.0}}, {"type": "Feature", "geometry": {"type": "Point", "coordinates": [-122.35088, 47.66843]}, "properties": {"model": "west", "taxon": "Equus", "lith_score": 0.4}}, {"type": "Feature", "geometry": {"type": "Point", "coordinates": [-124.36602, 47.95761]}, "properties": {"model": "west", "taxon": "Equus", "lith_score": 1.0}}, {"type": "Feature", "geometry": {"type": "Point", "coordinates": [-122.98611, 48.61097]}, "properties": {"model": "west", "taxon": "Bison", "lith_score": 0.2}}, {"type": "Feature", "geometry": {"type": "Point", "coordinates": [-124.10481, 47.80245]}, "properties": {"model": "west", "taxon": "Cervus", "lith_score": 0.7}}, {"type": "Feature", "geometry": {"type": "Point", "coordinates": [-124.18056, 47.88031]}, "properties": {"model": "west", "taxon": "Cervus", "lith_score": 0.7}}, {"type": "Feature", "geometry": {"type": "Point", "coordinates": [-121.6453, 47.3806]}, "properties": {"model": "west", "taxon": "Cervus", "lith_score": 1.0}}]}