{"type": "FeatureCollection", "features": [{"type": "Feature", "geometry": {"type": "Point", "coordinates": [-122.84194, 45.17528]}, "properties": {"id": "W01", "rank": 1, "eco": "west", "v3_score": 1.0, "v3_rank": 1, "lith_score": 1.0, "zero_terrain": false, "osm": {"water": null, "water_kind": null, "protected": null, "waterway": null}}}, {"type": "Feature", "geometry": {"type": "Point", "coordinates": [-120.13361, 46.30028]}, "properties": {"id": "E02", "rank": 2, "eco": "east", "v3_score": 1.0, "v3_rank": 1, "lith_score": 1.0, "zero_terrain": true, "v4_rank": 23, "v4_score": 0.676, "tpi_m": -5.4, "elev_m": 205.25, "level_km2": 1.09, "osm": {"water": null, "water_kind": null, "protected": null, "waterway": null}, "panel": "panels/E02.jpg"}}, {"type": "Feature", "geometry": {"type": "Point", "coordinates": [-117.75861, 46.67528]}, "properties": {"id": "E03", "rank": 3, "eco": "east", "v3_score": 1.0, "v3_rank": 2, "lith_score": 1.0, "zero_terrain": true, "v4_rank": 16, "v4_score": 0.717, "tpi_m": -86.3, "elev_m": 194.62, "level_km2": 6.1, "osm": {"water": "Lake Bryan", "water_kind": "reservoir", "protected": null, "waterway": null}, "panel": "panels/E03.jpg"}}, {"type": "Feature", "geometry": {"type": "Point", "coordinates": [-117.38361, 46.63361]}, "properties": {"id": "E04", "rank": 4, "eco": "east", "v3_score": 0.994, "v3_rank": 3, "lith_score": 1.0, "zero_terrain": true, "v4_rank": 17, "v4_score": 0.717, "tpi_m": -106.2, "elev_m": 225.07, "level_km2": 6.95, "osm": {"water": "Lower Granite Lake", "water_kind": "reservoir", "protected": null, "waterway": null}, "panel": "panels/E04.jpg"}}, {"type": "Feature", "geometry": {"type": "Point", "coordinates": [-120.53639, 46.35583]}, "properties": {"id": "E05", "rank": 5, "eco": "east", "v3_score": 0.994, "v3_rank": 4, "lith_score": 1.0, "zero_terrain": true, "v4_rank": 21, "v4_score": 0.679, "tpi_m": 0.1, "elev_m": 241.84, "level_km2": 0.19, "osm": {"water": null, "water_kind": null, "protected": null, "waterway": null}, "panel": "panels/E05.jpg"}}, {"type": "Feature", "geometry": {"type": "Point", "coordinates": [-122.25861, 48.57806]}, "properties": {"id": "W06", "rank": 6, "eco": "west", "v3_score": 0.986, "v3_rank": 2, "lith_score": 1.0, "zero_terrain": false, "osm": {"water": null, "water_kind": null, "protected": null, "waterway": null}}}, {"type": "Feature", "geometry": {"type": "Point", "coordinates": [-122.60583, 45.82806]}, "properties": {"id": "W07", "rank": 7, "eco": "west", "v3_score": 0.984, "v3_rank": 3, "lith_score": 1.0, "zero_terrain": false, "osm": {"water": null, "water_kind": null, "protected": null, "waterway": null}}}, {"type": "Feature", "geometry": {"type": "Point", "coordinates": [-122.09194, 47.46694]}, "properties": {"id": "W08", "rank": 8, "eco": "west", "v3_score": 0.983, "v3_rank": 4, "lith_score": 1.0, "zero_terrain": false, "osm": {"water": null, "water_kind": null, "protected": null, "waterway": null}}}, {"type": "Feature", "geometry": {"type": "Point", "coordinates": [-123.53639, 48.13361]}, "properties": {"id": "W09", "rank": 9, "eco": "west", "v3_score": 0.974, "v3_rank": 5, "lith_score": 1.0, "zero_terrain": false, "osm": {"water": null, "water_kind": null, "protected": null, "waterway": null}}}, {"type": "Feature", "geometry": {"type": "Point", "coordinates": [-122.8975, 48.49472]}, "properties": {"id": "W10", "rank": 10, "eco": "west", "v3_score": 0.937, "v3_rank": 6, "lith_score": 1.0, "zero_terrain": false, "osm": {"water": null, "water_kind": null, "protected": null, "waterway": null}}}, {"type": "Feature", "geometry": {"type": "Point", "coordinates": [-121.8975, 47.6475]}, "properties": {"id": "W11", "rank": 11, "eco": "west", "v3_score": 0.925, "v3_rank": 7, "lith_score": 1.0, "zero_terrain": false, "osm": {"water": null, "water_kind": null, "protected": null, "waterway": null}}}, {"type": "Feature", "geometry": {"type": "Point", "coordinates": [-122.49472, 45.38361]}, "properties": {"id": "W12", "rank": 12, "eco": "west", "v3_score": 0.903, "v3_rank": 8, "lith_score": 1.0, "zero_terrain": false, "osm": {"water": null, "water_kind": null, "protected": null, "waterway": null}}}, {"type": "Feature", "geometry": {"type": "Point", "coordinates": [-123.06417, 48.56417]}, "properties": {"id": "W13", "rank": 13, "eco": "west", "v3_score": 0.896, "v3_rank": 9, "lith_score": 1.0, "zero_terrain": false, "osm": {"water": null, "water_kind": null, "protected": null, "waterway": null}}}, {"type": "Feature", "geometry": {"type": "Point", "coordinates": [-122.48083, 45.66139]}, "properties": {"id": "W14", "rank": 14, "eco": "west", "v3_score": 0.879, "v3_rank": 10, "lith_score": 1.0, "zero_terrain": false, "osm": {"water": null, "water_kind": null, "protected": null, "waterway": null}}}, {"type": "Feature", "geometry": {"type": "Point", "coordinates": [-117.80028, 47.95306]}, "properties": {"id": "E15", "rank": 15, "eco": "east", "v3_score": 0.814, "v3_rank": 5, "lith_score": 1.0, "zero_terrain": true, "v4_rank": 19, "v4_score": 0.706, "tpi_m": -15.6, "elev_m": 571.09, "level_km2": 0.7, "osm": {"water": null, "water_kind": null, "protected": null, "waterway": null}, "panel": "panels/E15.jpg"}}, {"type": "Feature", "geometry": {"type": "Point", "coordinates": [-117.35583, 47.92528]}, "properties": {"id": "E16", "rank": 16, "eco": "east", "v3_score": 0.814, "v3_rank": 6, "lith_score": 1.0, "zero_terrain": true, "v4_rank": 24, "v4_score": 0.671, "tpi_m": -6.7, "elev_m": 568.88, "level_km2": 0.11, "osm": {"water": "Bear Lake", "water_kind": "water", "protected": null, "waterway": null}, "panel": "panels/E16.jpg"}}, {"type": "Feature", "geometry": {"type": "Point", "coordinates": [-122.98083, 44.48083]}, "properties": {"id": "W17", "rank": 17, "eco": "west", "v3_score": 0.766, "v3_rank": 11, "lith_score": 1.0, "zero_terrain": false, "osm": {"water": null, "water_kind": null, "protected": null, "waterway": null}}}, {"type": "Feature", "geometry": {"type": "Point", "coordinates": [-120.53639, 42.68917]}, "properties": {"id": "E18", "rank": 18, "eco": "east", "v3_score": 0.657, "v3_rank": 7, "lith_score": 1.0, "zero_terrain": false, "v4_rank": 1, "v4_score": 1.0, "tpi_m": -15.3, "elev_m": 1324.94, "level_km2": 0.0, "osm": {"water": null, "water_kind": null, "protected": null, "waterway": null}, "panel": "panels/E18.jpg"}}, {"type": "Feature", "geometry": {"type": "Point", "coordinates": [-117.93917, 42.46694]}, "properties": {"id": "E19", "rank": 19, "eco": "east", "v3_score": 0.616, "v3_rank": 8, "lith_score": 1.0, "zero_terrain": false, "v4_rank": 6, "v4_score": 0.847, "tpi_m": -3.2, "elev_m": 1308.71, "level_km2": 0.0, "osm": {"water": null, "water_kind": null, "protected": "Alvord Desert Wilderness Study Area", "waterway": null}, "panel": "panels/E19.jpg"}}, {"type": "Feature", "geometry": {"type": "Point", "coordinates": [-117.42528, 44.55028]}, "properties": {"id": "E20", "rank": 20, "eco": "east", "v3_score": 0.508, "v3_rank": 9, "lith_score": 1.0, "zero_terrain": true, "v4_rank": 18, "v4_score": 0.71, "tpi_m": -97.9, "elev_m": 779.58, "level_km2": 0.61, "osm": {"water": null, "water_kind": null, "protected": null, "waterway": null}, "panel": "panels/E20.jpg"}}, {"type": "Feature", "geometry": {"type": "Point", "coordinates": [-121.18917, 47.50861]}, "properties": {"id": "E21", "rank": 21, "eco": "east", "v3_score": 0.478, "v3_rank": 10, "lith_score": 1.0, "zero_terrain": true, "v4_rank": 15, "v4_score": 0.719, "tpi_m": -250.1, "elev_m": 904.48, "level_km2": 0.7, "osm": {"water": "Waptus Lake", "water_kind": "lake", "protected": "Okanogan-Wenatchee National Forest", "waterway": null}, "panel": "panels/E21.jpg"}}, {"type": "Feature", "geometry": {"type": "Point", "coordinates": [-120.18917, 43.6475]}, "properties": {"id": "E22", "rank": 22, "eco": "east", "v3_score": 0.478, "v3_rank": 11, "lith_score": 1.0, "zero_terrain": true, "v4_rank": 9, "v4_score": 0.801, "osm": {"water": null, "water_kind": null, "protected": null, "waterway": null}}}, {"type": "Feature", "geometry": {"type": "Point", "coordinates": [-117.60583, 43.28639]}, "properties": {"id": "E23", "rank": 23, "eco": "east", "v3_score": 0.478, "v3_rank": 12, "lith_score": 1.0, "zero_terrain": true, "v4_rank": 5, "v4_score": 0.889, "tpi_m": -21.1, "elev_m": 1349.91, "level_km2": 0.24, "osm": {"water": null, "water_kind": null, "protected": null, "waterway": null}, "panel": "panels/E23.jpg"}}, {"type": "Feature", "geometry": {"type": "Point", "coordinates": [-122.8975, 47.00861]}, "properties": {"id": "W24", "rank": 24, "eco": "west", "v3_score": 0.459, "v3_rank": 12, "lith_score": 1.0, "zero_terrain": false, "osm": {"water": null, "water_kind": null, "protected": null, "waterway": null}}}, {"type": "Feature", "geometry": {"type": "Point", "coordinates": [-117.84194, 44.81417]}, "properties": {"id": "E25", "rank": 25, "eco": "east", "v3_score": 0.441, "v3_rank": 13, "lith_score": 1.0, "zero_terrain": true, "v4_rank": 22, "v4_score": 0.678, "tpi_m": 0.9, "elev_m": 1034.25, "level_km2": 0.25, "osm": {"water": "water", "water_kind": "basin", "protected": null, "waterway": null}, "panel": "panels/E25.jpg"}}, {"type": "Feature", "geometry": {"type": "Point", "coordinates": [-120.32806, 46.91139]}, "properties": {"id": "E26", "rank": 26, "eco": "east", "v3_score": 0.37, "v3_rank": 14, "lith_score": 1.0, "zero_terrain": false, "v4_rank": 11, "v4_score": 0.742, "tpi_m": -15.6, "elev_m": 601.32, "level_km2": 0.0, "osm": {"water": null, "water_kind": null, "protected": null, "waterway": null}, "panel": "panels/E26.jpg"}}, {"type": "Feature", "geometry": {"type": "Point", "coordinates": [-117.09194, 43.09194]}, "properties": {"id": "E27", "rank": 27, "eco": "east", "v3_score": 0.367, "v3_rank": 15, "lith_score": 1.0, "zero_terrain": false, "v4_rank": 2, "v4_score": 0.983, "tpi_m": -13.8, "elev_m": 1369.58, "level_km2": 0.0, "osm": {"water": null, "water_kind": null, "protected": null, "waterway": null}, "panel": "panels/E27.jpg"}}, {"type": "Feature", "geometry": {"type": "Point", "coordinates": [-123.31417, 42.99472]}, "properties": {"id": "W28", "rank": 28, "eco": "west", "v3_score": 0.311, "v3_rank": 13, "lith_score": 1.0, "zero_terrain": false, "osm": {"water": null, "water_kind": null, "protected": null, "waterway": "South Umpqua River"}}}, {"type": "Feature", "geometry": {"type": "Point", "coordinates": [-120.45306, 42.16139]}, "properties": {"id": "E29", "rank": 29, "eco": "east", "v3_score": 0.293, "v3_rank": 16, "lith_score": 1.0, "zero_terrain": false, "v4_rank": 10, "v4_score": 0.794, "tpi_m": 4.6, "elev_m": 1470.07, "level_km2": 0.0, "osm": {"water": null, "water_kind": null, "protected": null, "waterway": null}, "panel": "panels/E29.jpg"}}, {"type": "Feature", "geometry": {"type": "Point", "coordinates": [-118.92528, 46.07806]}, "properties": {"id": "E30", "rank": 30, "eco": "east", "v3_score": 0.277, "v3_rank": 17, "lith_score": 0.4, "zero_terrain": true, "v4_rank": 7, "v4_score": 0.846, "osm": {"water": "Lake Wallula", "water_kind": "reservoir", "protected": "McNary National Wildlife Refuge", "waterway": null}}}, {"type": "Feature", "geometry": {"type": "Point", "coordinates": [-118.00861, 46.24472]}, "properties": {"id": "E31", "rank": 31, "eco": "east", "v3_score": 0.271, "v3_rank": 18, "lith_score": 1.0, "zero_terrain": false, "v4_rank": 20, "v4_score": 0.695, "tpi_m": 1.4, "elev_m": 653.75, "level_km2": 0.0, "osm": {"water": null, "water_kind": null, "protected": null, "waterway": null}, "panel": "panels/E31.jpg"}}, {"type": "Feature", "geometry": {"type": "Point", "coordinates": [-117.18917, 46.38361]}, "properties": {"id": "E32", "rank": 32, "eco": "east", "v3_score": 0.252, "v3_rank": 19, "lith_score": 1.0, "zero_terrain": false, "v4_rank": 12, "v4_score": 0.741, "tpi_m": 39.9, "elev_m": 564.26, "level_km2": 0.0, "osm": {"water": null, "water_kind": null, "protected": null, "waterway": null}, "panel": "panels/E32.jpg"}}, {"type": "Feature", "geometry": {"type": "Point", "coordinates": [-120.80028, 46.53639]}, "properties": {"id": "E33", "rank": 33, "eco": "east", "v3_score": 0.251, "v3_rank": 20, "lith_score": 1.0, "zero_terrain": false, "v4_rank": 14, "v4_score": 0.73, "osm": {"water": null, "water_kind": null, "protected": null, "waterway": null}}}, {"type": "Feature", "geometry": {"type": "Point", "coordinates": [-120.42528, 42.66139]}, "properties": {"id": "E34", "rank": 34, "eco": "east", "v3_score": 0.23, "v3_rank": 21, "lith_score": 1.0, "zero_terrain": false, "v4_rank": 3, "v4_score": 0.923, "tpi_m": -8.1, "elev_m": 1317.47, "level_km2": 0.0, "osm": {"water": null, "water_kind": null, "protected": null, "waterway": null}, "panel": "panels/E34.jpg"}}, {"type": "Feature", "geometry": {"type": "Point", "coordinates": [-118.55028, 46.91139]}, "properties": {"id": "E35", "rank": 35, "eco": "east", "v3_score": 0.135, "v3_rank": 22, "lith_score": 1.0, "zero_terrain": false, "v4_rank": 25, "v4_score": 0.592, "tpi_m": 12.7, "elev_m": 554.8, "level_km2": 0.0, "osm": {"water": null, "water_kind": null, "protected": null, "waterway": null}, "panel": "panels/E35.jpg"}}, {"type": "Feature", "geometry": {"type": "Point", "coordinates": [-122.0225, 44.00861]}, "properties": {"id": "W36", "rank": 36, "eco": "west", "v3_score": 0.115, "v3_rank": 14, "lith_score": 1.0, "zero_terrain": false, "osm": {"water": null, "water_kind": null, "protected": "Willamette National Forest", "waterway": null}}}, {"type": "Feature", "geometry": {"type": "Point", "coordinates": [-123.59194, 42.2725]}, "properties": {"id": "W37", "rank": 37, "eco": "west", "v3_score": 0.074, "v3_rank": 15, "lith_score": 1.0, "zero_terrain": false, "osm": {"water": null, "water_kind": null, "protected": null, "waterway": null}}}, {"type": "Feature", "geometry": {"type": "Point", "coordinates": [-120.55028, 42.17528]}, "properties": {"id": "E38", "rank": 38, "eco": "east", "v3_score": 0.066, "v3_rank": 23, "lith_score": 1.0, "zero_terrain": false, "v4_rank": 8, "v4_score": 0.815, "osm": {"water": null, "water_kind": null, "protected": null, "waterway": null}}}, {"type": "Feature", "geometry": {"type": "Point", "coordinates": [-123.36972, 42.43917]}, "properties": {"id": "W39", "rank": 39, "eco": "west", "v3_score": 0.05, "v3_rank": 16, "lith_score": 1.0, "zero_terrain": false, "osm": {"water": null, "water_kind": null, "protected": null, "waterway": null}}}, {"type": "Feature", "geometry": {"type": "Point", "coordinates": [-120.84194, 43.85583]}, "properties": {"id": "E40", "rank": 40, "eco": "east", "v3_score": 0.032, "v3_rank": 24, "lith_score": 1.0, "zero_terrain": false, "v4_rank": 4, "v4_score": 0.894, "tpi_m": -4.3, "elev_m": 1335.28, "level_km2": 0.0, "osm": {"water": null, "water_kind": null, "protected": null, "waterway": null}, "panel": "panels/E40.jpg"}}, {"type": "Feature", "geometry": {"type": "Point", "coordinates": [-123.88361, 42.81417]}, "properties": {"id": "W41", "rank": 41, "eco": "west", "v3_score": 0.0, "v3_rank": 17, "lith_score": 1.0, "zero_terrain": false, "osm": {"water": null, "water_kind": null, "protected": null, "waterway": "South Fork Coquille River"}}}, {"type": "Feature", "geometry": {"type": "Point", "coordinates": [-117.09194, 43.70306]}, "properties": {"id": "E42", "rank": 42, "eco": "east", "v3_score": 0.0, "v3_rank": 25, "lith_score": 1.0, "zero_terrain": false, "v4_rank": 13, "v4_score": 0.735, "osm": {"water": null, "water_kind": null, "protected": null, "waterway": null}}}]}